{
"type": "FeatureCollection",
"name": "South_Dagon_TS_Bdry",
"crs": { "type": "name", "properties": { "name": "urn:ogc:def:crs:OGC:1.3:CRS84" } },
"features": [
{ "type": "Feature", "properties": { "FCode": 1108, "FCName": "Township boundary in City area", "Region": "Yangon Region", "District": "Yangon (East)", "City": "Yangon City", "D_City": "East", "TSGroup": "New Suburbs", "TS_Code": "E004", "Township": "Dagon Myothit (South)", "Shape_Leng": 68157.551941400001, "Shape_Area": 85513990.575299993, "Area": 33.017136350999998, "Area_Ac": 21130.967261900001, "Area_sqkm": 85.513990575299999, "Area_sqmi": 0, "Area_sq": 33.017136350999998 }, "geometry": { "type": "MultiPolygon", "coordinates": [ [ [ [ 96.319452449950063, 17.021575813075305 ], [ 96.31976914853395, 17.021312361192717 ], [ 96.320234805369225, 17.021053261938945 ], [ 96.320622026574668, 17.02084058441892 ], [ 96.320443220385471, 17.020602256509207 ], [ 96.320217282239966, 17.020248017474803 ], [ 96.320030124433018, 17.019786760311835 ], [ 96.319901542459093, 17.019397961049879 ], [ 96.319848274145826, 17.018952805921781 ], [ 96.319846234670251, 17.018572843776056 ], [ 96.319958081034031, 17.0180438412043 ], [ 96.320167893249959, 17.017437276572473 ], [ 96.320692923205527, 17.016343839397397 ], [ 96.321279596906479, 17.015760134484538 ], [ 96.321365722997456, 17.01546735633368 ], [ 96.321405315465938, 17.015302999812086 ], [ 96.321755338526728, 17.015314778135068 ], [ 96.321764011174494, 17.01522886924446 ], [ 96.322002394116836, 17.015232008637756 ], [ 96.321981778729551, 17.01510987060896 ], [ 96.322067189602265, 17.014867263160486 ], [ 96.32215964135537, 17.014653421832449 ], [ 96.322209741267528, 17.014274145533186 ], [ 96.322242284610553, 17.013557712664191 ], [ 96.322339329883675, 17.013544653207823 ], [ 96.322375957190687, 17.013064839017037 ], [ 96.322419014630825, 17.012656794500863 ], [ 96.322450433831051, 17.012019201599642 ], [ 96.322515023506853, 17.011668790123565 ], [ 96.322510121774343, 17.011489510188859 ], [ 96.322607268807914, 17.011469283655469 ], [ 96.322558996177193, 17.011196240565582 ], [ 96.322431644457438, 17.011244744773585 ], [ 96.322333469979313, 17.010813335603029 ], [ 96.322266723560688, 17.010267642596578 ], [ 96.322170588106303, 17.009692887415028 ], [ 96.322082624416922, 17.009591369049083 ], [ 96.321938124076354, 17.009274047535069 ], [ 96.321701726584365, 17.009236646030701 ], [ 96.321605636797102, 17.00886834787628 ], [ 96.321096098684677, 17.008932368781601 ], [ 96.320749151373391, 17.009019557457307 ], [ 96.320698042773998, 17.008562005506072 ], [ 96.320672519914709, 17.008077937787881 ], [ 96.320627209342447, 17.007771479923573 ], [ 96.32053672823011, 17.007497881758134 ], [ 96.320472845839006, 17.007100376836707 ], [ 96.320451277906315, 17.006870697861789 ], [ 96.320685159458705, 17.006840324428467 ], [ 96.320717135321601, 17.007036687657866 ], [ 96.320861287952226, 17.007029028232161 ], [ 96.320878704696867, 17.007201303818437 ], [ 96.321196670779329, 17.00719593304828 ], [ 96.321243816352805, 17.007373379460638 ], [ 96.321282866035659, 17.007421683665864 ], [ 96.321505864122841, 17.007458073547891 ], [ 96.32153715563787, 17.0073533458268 ], [ 96.32157858375389, 17.007234414358194 ], [ 96.321662668604503, 17.007173435677881 ], [ 96.321649889697838, 17.006608575295864 ], [ 96.321647098807404, 17.006485230560841 ], [ 96.321390337551193, 17.006500738264094 ], [ 96.32127563633712, 17.006183808984112 ], [ 96.321223932238965, 17.0059776281973 ], [ 96.321267805526873, 17.005686682670962 ], [ 96.321303717468481, 17.005257038840288 ], [ 96.32060513826832, 17.005133142038119 ], [ 96.319936424405157, 17.005004857882302 ], [ 96.319788938782722, 17.004897776425896 ], [ 96.31964145428654, 17.004790693994604 ], [ 96.319498867357709, 17.004688454453966 ], [ 96.319335941207157, 17.004619401475473 ], [ 96.319098116242571, 17.004578035871102 ], [ 96.318993966277105, 17.004567104848839 ], [ 96.318615869938839, 17.004609913363002 ], [ 96.318308317564657, 17.004581965111981 ], [ 96.317911921736169, 17.004514612279756 ], [ 96.317774098297377, 17.004426772523907 ], [ 96.317696207047902, 17.004315826905152 ], [ 96.317619676680408, 17.00410931846293 ], [ 96.317577704472711, 17.003917602750985 ], [ 96.31793947363056, 17.003626069727723 ], [ 96.318218112098137, 17.003242637968025 ], [ 96.318601714463227, 17.002812797973068 ], [ 96.318913820165946, 17.002520608287078 ], [ 96.319129871919216, 17.002346629322837 ], [ 96.319435447063569, 17.002164271543048 ], [ 96.319680137928614, 17.002071912838023 ], [ 96.320069181167881, 17.00195755989547 ], [ 96.320491829657954, 17.001924893302046 ], [ 96.320974138260013, 17.001888231874613 ], [ 96.321535698369743, 17.001866949609546 ], [ 96.321939026169275, 17.001795792498999 ], [ 96.32199375694907, 17.001780485795635 ], [ 96.322293102498236, 17.001695312074954 ], [ 96.322702687159321, 17.00153343306323 ], [ 96.323053697459272, 17.00129909656723 ], [ 96.323302120514725, 17.000943933854529 ], [ 96.323647405568138, 17.000413217638336 ], [ 96.323848979150313, 17.000149179802815 ], [ 96.324015756612226, 16.999966316486894 ], [ 96.324581436855425, 16.999304681408642 ], [ 96.324995646033528, 16.998861715953758 ], [ 96.325525624254084, 16.998615388973473 ], [ 96.326257829357587, 16.998118425111223 ], [ 96.32693513566656, 16.997639853771133 ], [ 96.327476259515777, 16.997307643713281 ], [ 96.327957520562649, 16.996993762790154 ], [ 96.328264569028093, 16.996706267590291 ], [ 96.328549112385645, 16.996604861883643 ], [ 96.328986782851729, 16.996562815115251 ], [ 96.329284733559703, 16.996566724574876 ], [ 96.329592141773603, 16.996604210727064 ], [ 96.32997510482565, 16.996650031805171 ], [ 96.330518120073222, 16.996710041531241 ], [ 96.33085043339463, 16.996391809795437 ], [ 96.331174068683538, 16.996686383741576 ], [ 96.331356137391822, 16.996455789463912 ], [ 96.331513018370885, 16.996425586986081 ], [ 96.331805042330657, 16.99632188479714 ], [ 96.331987790627991, 16.996306359200425 ], [ 96.332218956055868, 16.996291467083484 ], [ 96.332366206136058, 16.996332332026487 ], [ 96.332761614105408, 16.996468939028709 ], [ 96.333455735113958, 16.996555693950846 ], [ 96.334689050114463, 16.996709246476378 ], [ 96.335247287242808, 16.996746424760914 ], [ 96.336042080452501, 16.99673890611367 ], [ 96.336669950222614, 16.996681408882317 ], [ 96.337155654077094, 16.996520087172783 ], [ 96.337590976457989, 16.9965230964158 ], [ 96.337918977486382, 16.996509464323008 ], [ 96.338389163174554, 16.996451094221175 ], [ 96.338677815426607, 16.996322247402436 ], [ 96.338956760820139, 16.996089327043588 ], [ 96.339154173270956, 16.9958266657246 ], [ 96.339253689219518, 16.995637996040557 ], [ 96.339300152508685, 16.99551315151793 ], [ 96.339287784511328, 16.995333772190929 ], [ 96.339252462707563, 16.995197104981294 ], [ 96.339237688619832, 16.995156719353393 ], [ 96.339043950147982, 16.995032366723024 ], [ 96.338859501991934, 16.994904503851544 ], [ 96.338808726509157, 16.994807062149007 ], [ 96.338777635676365, 16.994634607234389 ], [ 96.338772110133803, 16.994498329502029 ], [ 96.338762961179555, 16.994354836167521 ], [ 96.338795134074459, 16.994186791916086 ], [ 96.338901895099653, 16.994012554398427 ], [ 96.33903733771696, 16.993917546806006 ], [ 96.339183953940676, 16.993822686046137 ], [ 96.339374704837709, 16.993767829525929 ], [ 96.339572248223917, 16.993759657390441 ], [ 96.339776935437541, 16.993773085839269 ], [ 96.339965765386751, 16.993854408349137 ], [ 96.34008413550238, 16.993913305395608 ], [ 96.340313680597291, 16.994013081540057 ], [ 96.340550675152883, 16.994112954770092 ], [ 96.340713384060678, 16.99419752091389 ], [ 96.340869302126194, 16.994235400584017 ], [ 96.340936542393365, 16.994221941461067 ], [ 96.34100489577223, 16.994129641628788 ], [ 96.341131186827241, 16.993891139015094 ], [ 96.341177901079206, 16.993748375136896 ], [ 96.341199202171779, 16.993558681674887 ], [ 96.341197246769354, 16.993433204129008 ], [ 96.341203650373089, 16.993243317002602 ], [ 96.341233006054864, 16.993010717413071 ], [ 96.341224057303535, 16.992852888255531 ], [ 96.341218732017524, 16.992702275568067 ], [ 96.34117585873868, 16.992572679086074 ], [ 96.341104152220069, 16.992374602735364 ], [ 96.341010504730932, 16.992147565939892 ], [ 96.3409729737579, 16.991903339127376 ], [ 96.340952801883518, 16.991748947983556 ], [ 96.340954823763852, 16.991605600409979 ], [ 96.341004453128363, 16.991520224155828 ], [ 96.341352785139193, 16.991384982505263 ], [ 96.341554555145635, 16.991341021143118 ], [ 96.341931014534694, 16.991324429487594 ], [ 96.342597969585441, 16.991311628702928 ], [ 96.342929131282318, 16.991337457129887 ], [ 96.343365633469446, 16.991289387811065 ], [ 96.343638064847212, 16.99125351360841 ], [ 96.343944721110461, 16.991167904938546 ], [ 96.344210510946311, 16.991074594476924 ], [ 96.344446606121394, 16.990973727187601 ], [ 96.344705805420446, 16.990819395730362 ], [ 96.344837720495207, 16.990710000140144 ], [ 96.344950863198818, 16.990611113421178 ], [ 96.345000995239559, 16.990489898426212 ], [ 96.345032656873485, 16.990357689725588 ], [ 96.34504272917539, 16.990171434347975 ], [ 96.345124219684109, 16.989939512322856 ], [ 96.345205659477855, 16.989711175063409 ], [ 96.345326602649934, 16.989587298522469 ], [ 96.345426613166993, 16.989362787803447 ], [ 96.345543933279473, 16.989231695581278 ], [ 96.345729500473652, 16.989015467261268 ], [ 96.345831266328972, 16.988930769007428 ], [ 96.345913553894135, 16.988906751206798 ], [ 96.34603252883484, 16.988922639276733 ], [ 96.346129360395892, 16.988923901247901 ], [ 96.346170882004671, 16.988885013701182 ], [ 96.346161474788133, 16.988759438629792 ], [ 96.34613309293043, 16.988658706592265 ], [ 96.346141852412231, 16.988565626861 ], [ 96.346181012180608, 16.988429930945518 ], [ 96.346223391066459, 16.988330121047071 ], [ 96.346389781176327, 16.988153070668247 ], [ 96.346538355385348, 16.987918438150416 ], [ 96.346656682295517, 16.98771567088864 ], [ 96.346737060058203, 16.987562589759776 ], [ 96.346820707402102, 16.987441811589356 ], [ 96.346852215704416, 16.987320353217779 ], [ 96.346861530236239, 16.987187852834492 ], [ 96.346885639922561, 16.987062713469737 ], [ 96.346843470085091, 16.9868829453976 ], [ 96.346830941849717, 16.986846810739802 ], [ 96.347076497759019, 16.986470193715039 ], [ 96.347282597112809, 16.986118025341291 ], [ 96.347377466191517, 16.985993808369741 ], [ 96.347531269244527, 16.985916954962683 ], [ 96.347691208783985, 16.985933375339531 ], [ 96.347832074388378, 16.985981806748583 ], [ 96.347950191109732, 16.986058616789279 ], [ 96.348039219678341, 16.986084866408547 ], [ 96.348169870530796, 16.986065061825183 ], [ 96.348312701602268, 16.985973727457562 ], [ 96.348421712002121, 16.985903459326348 ], [ 96.348457296052629, 16.985756963230475 ], [ 96.348467162530824, 16.985585041049827 ], [ 96.348493534096463, 16.985563878605696 ], [ 96.348496355624789, 16.985363189745737 ], [ 96.348380758297594, 16.985107194835191 ], [ 96.348403579320092, 16.985007387894459 ], [ 96.34850347981255, 16.984966870862831 ], [ 96.348574870352721, 16.9843046906635 ], [ 96.348583092885676, 16.984161421995363 ], [ 96.348826178044277, 16.98365082557277 ], [ 96.348549767799582, 16.983533899781992 ], [ 96.348646029251441, 16.983298978562036 ], [ 96.348809996529496, 16.983028699646784 ], [ 96.348981160251697, 16.982776436272594 ], [ 96.349071497027523, 16.982709509082763 ], [ 96.34918372590873, 16.982675125400316 ], [ 96.349414976753167, 16.982653044195835 ], [ 96.349680148074384, 16.982602729068528 ], [ 96.349867011047024, 16.982558563116541 ], [ 96.3500055100141, 16.982510183218647 ], [ 96.350275914771387, 16.982352403659576 ], [ 96.350396951215345, 16.982221355918398 ], [ 96.350454474398049, 16.98210381950523 ], [ 96.350481952625429, 16.982003814395011 ], [ 96.350497253245109, 16.981710094175341 ], [ 96.350513609507487, 16.981606359793833 ], [ 96.350548637013077, 16.981499283639629 ], [ 96.350675056973358, 16.98125002101704 ], [ 96.350819341622497, 16.98105475600028 ], [ 96.35097852340958, 16.98085968455004 ], [ 96.351035694390887, 16.980767234596883 ], [ 96.351085465989627, 16.980671102903671 ], [ 96.351128948020033, 16.980492448963918 ], [ 96.351251288796405, 16.980002979670669 ], [ 96.351390992688025, 16.979603344703595 ], [ 96.351555354799146, 16.979304392690413 ], [ 96.35162535707309, 16.979093823632677 ], [ 96.351672913527025, 16.978890131978748 ], [ 96.351678247547497, 16.978775501185535 ], [ 96.351613628061102, 16.978602610144733 ], [ 96.351398685487709, 16.978259299477223 ], [ 96.35095008226368, 16.977579603583656 ], [ 96.350768910210533, 16.977218809454516 ], [ 96.350700467933166, 16.977053037779605 ], [ 96.350571130995888, 16.976714424234828 ], [ 96.350485376855119, 16.976455233186407 ], [ 96.350332489162597, 16.976202338393328 ], [ 96.350156503288673, 16.976002909486542 ], [ 96.34986235459084, 16.975730255361672 ], [ 96.349527242789776, 16.975457068125582 ], [ 96.348964968204186, 16.974915681287182 ], [ 96.348751342662638, 16.974744435907162 ], [ 96.348455284665022, 16.974607961987981 ], [ 96.348062353415941, 16.974473811683438 ], [ 96.347710336114019, 16.974343777776028 ], [ 96.347429226003058, 16.974203912479233 ], [ 96.347108613640046, 16.973959585691482 ], [ 96.346866608871537, 16.973687606919299 ], [ 96.346583691740577, 16.973411511588001 ], [ 96.346365841233165, 16.973276053292352 ], [ 96.346139535800589, 16.973212172046669 ], [ 96.345786565018173, 16.973150225579431 ], [ 96.345388453428384, 16.973119949168151 ], [ 96.345113433596183, 16.973076938956581 ], [ 96.344789218690565, 16.972912613506022 ], [ 96.34451391924155, 16.972713080869951 ], [ 96.344254928039462, 16.97241339828075 ], [ 96.344128789096658, 16.97220147138836 ], [ 96.343960653638206, 16.971797830885741 ], [ 96.343832037639416, 16.971409042787766 ], [ 96.343690275577643, 16.970895825766153 ], [ 96.343580119948925, 16.970651050958686 ], [ 96.343465347489982, 16.970425532442754 ], [ 96.343318955274526, 16.970241419247714 ], [ 96.342943307888632, 16.969806398724288 ], [ 96.342670070086427, 16.969372712772106 ], [ 96.342613546446998, 16.969198731784413 ], [ 96.342597154827487, 16.969040208388716 ], [ 96.342544494632506, 16.968891987612803 ], [ 96.342427789654494, 16.96871249949513 ], [ 96.342343186655384, 16.968548905260864 ], [ 96.342204813550367, 16.968148041827199 ], [ 96.342100154466138, 16.967821694825112 ], [ 96.341959199517078, 16.967427966843204 ], [ 96.341867687396061, 16.967226048678505 ], [ 96.341734644936281, 16.966975798135252 ], [ 96.341640490524014, 16.966749950047994 ], [ 96.341540203270739, 16.966536448346623 ], [ 96.341480250485745, 16.966420967116548 ], [ 96.341378752547541, 16.966293473265171 ], [ 96.341208627613511, 16.966084321562981 ], [ 96.340982035966434, 16.965942036434878 ], [ 96.340617931208982, 16.96571340141212 ], [ 96.340347218875763, 16.965589396036172 ], [ 96.340252804210337, 16.965546147374084 ], [ 96.339967958483172, 16.965398087069776 ], [ 96.339948499552463, 16.965387972661606 ], [ 96.339818975279101, 16.965320646718638 ], [ 96.339567359688559, 16.965115444963406 ], [ 96.339148368697963, 16.964492461661866 ], [ 96.339101487371082, 16.964422755721817 ], [ 96.339020143942946, 16.964301809015566 ], [ 96.338801272306327, 16.963976373897161 ], [ 96.338438995754899, 16.963552499977254 ], [ 96.338166174584657, 16.963233290916172 ], [ 96.338010427992373, 16.963023274634491 ], [ 96.337879869217446, 16.962847221973366 ], [ 96.337646164703969, 16.962454859147257 ], [ 96.337537167381498, 16.962271864520662 ], [ 96.337212846095909, 16.961727362386302 ], [ 96.33720594849575, 16.961717653845835 ], [ 96.337108819939104, 16.961580942994615 ], [ 96.336919980247217, 16.961315145835343 ], [ 96.336783663143777, 16.961123275752851 ], [ 96.336637922008222, 16.960918139097419 ], [ 96.336370115394644, 16.960541190999564 ], [ 96.336204107688914, 16.960307528302017 ], [ 96.336183330371469, 16.960281355689091 ], [ 96.336005263892929, 16.960057043656622 ], [ 96.335735949258108, 16.959717786020562 ], [ 96.33571945585058, 16.959697009619187 ], [ 96.335560062550357, 16.959496219754758 ], [ 96.335387724837915, 16.959138306343299 ], [ 96.335363073183274, 16.95908710847068 ], [ 96.335330757712455, 16.959019995547379 ], [ 96.335328487568674, 16.959015280386669 ], [ 96.334960594666398, 16.958341394383982 ], [ 96.334937462455528, 16.958189022008391 ], [ 96.334856916004455, 16.957658449366633 ], [ 96.334835832553139, 16.957519571413652 ], [ 96.334815200757916, 16.957383667989724 ], [ 96.334813570103961, 16.957230316686847 ], [ 96.334811708737703, 16.957055202069018 ], [ 96.334811544069879, 16.957039667684445 ], [ 96.334809509338712, 16.956848236445317 ], [ 96.334807768725057, 16.956684448799727 ], [ 96.334807573945696, 16.956666126022505 ], [ 96.334806665320301, 16.956580661578599 ], [ 96.334862912352222, 16.956285216541314 ], [ 96.334873890524548, 16.956227551671358 ], [ 96.334944661523977, 16.955855818275086 ], [ 96.334950946130547, 16.955822809261178 ], [ 96.334991834582993, 16.955543474201509 ], [ 96.335016994050875, 16.95542317743929 ], [ 96.335041139316587, 16.955330075477182 ], [ 96.335119585909339, 16.955134367046629 ], [ 96.335159291120647, 16.955027654766173 ], [ 96.335217504808099, 16.954871197134004 ], [ 96.335250626196654, 16.954782178976512 ], [ 96.33527174864318, 16.954725409719124 ], [ 96.335297850299995, 16.954655257710012 ], [ 96.335338820303946, 16.954545146201767 ], [ 96.335360936577985, 16.954485705769816 ], [ 96.335424761094302, 16.954314167491226 ], [ 96.335449769250062, 16.954246953535524 ], [ 96.335515690602506, 16.954069778082594 ], [ 96.335538124712585, 16.954009482877677 ], [ 96.335541156083792, 16.954003932921186 ], [ 96.335621211273718, 16.953857371587759 ], [ 96.335632393700195, 16.953836898889552 ], [ 96.335644050025451, 16.953815559943923 ], [ 96.335344982292582, 16.953768918046926 ], [ 96.335051276260231, 16.953732822218445 ], [ 96.334705845623617, 16.953667375460938 ], [ 96.33474264314188, 16.953434873563985 ], [ 96.334181526152676, 16.953353847599722 ], [ 96.332986598487508, 16.953156622706263 ], [ 96.33176800480507, 16.952947611709053 ], [ 96.331475048750306, 16.952968507104035 ], [ 96.330258665170263, 16.952968010562948 ], [ 96.329514298909828, 16.952934373135442 ], [ 96.329061270263708, 16.952928442627076 ], [ 96.328683726083014, 16.952851812896693 ], [ 96.328668949576482, 16.953018888763857 ], [ 96.328105145128845, 16.952945792363764 ], [ 96.327000840596369, 16.952907431515321 ], [ 96.326610462950484, 16.952860499356742 ], [ 96.325959272047953, 16.952822095740487 ], [ 96.325060607938894, 16.952726679990445 ], [ 96.324415539272565, 16.952694326043769 ], [ 96.324444439711471, 16.952391669594604 ], [ 96.324010670373653, 16.952347907107828 ], [ 96.323634127495637, 16.952288486271812 ], [ 96.323540914329513, 16.952278661106249 ], [ 96.323481310611058, 16.952279791119267 ], [ 96.323415804409677, 16.952277019804839 ], [ 96.323320848739215, 16.952249966956916 ], [ 96.323169418034354, 16.952213570742636 ], [ 96.323071443055426, 16.952189345625868 ], [ 96.322972095528243, 16.952191865051375 ], [ 96.322783195001236, 16.952206591060353 ], [ 96.322687955196471, 16.952199606373302 ], [ 96.322788849356485, 16.951737358494331 ], [ 96.32289274499017, 16.951413743141604 ], [ 96.322934424391022, 16.951275695838792 ], [ 96.32233492358732, 16.951181805424262 ], [ 96.321993041751469, 16.951129527208764 ], [ 96.321596753012571, 16.951062196980569 ], [ 96.320922446526311, 16.950991215680983 ], [ 96.320252021822853, 16.950996748779104 ], [ 96.319686056219282, 16.950989314693029 ], [ 96.319288820459946, 16.950988875352479 ], [ 96.319069361173987, 16.951057678001611 ], [ 96.318879825819195, 16.951117315764911 ], [ 96.31877019775213, 16.951144549603168 ], [ 96.3186862735662, 16.951109992893187 ], [ 96.318632747986925, 16.951032824876496 ], [ 96.318619548949215, 16.950913174241101 ], [ 96.318543233626357, 16.950692332661554 ], [ 96.318413257514891, 16.950403880003503 ], [ 96.318317761906371, 16.950134996173347 ], [ 96.318183379685195, 16.950157125045976 ], [ 96.3180872065073, 16.949936023292736 ], [ 96.317992051451682, 16.949643248800449 ], [ 96.317857518678849, 16.949326060732169 ], [ 96.317748840881066, 16.949286399912012 ], [ 96.317656073854835, 16.949175261203042 ], [ 96.317568949846248, 16.949016406525814 ], [ 96.317467407054053, 16.948823908473663 ], [ 96.317360221510597, 16.948679126327917 ], [ 96.317311796591326, 16.948592466418006 ], [ 96.317293972562851, 16.948448859944687 ], [ 96.317306411239187, 16.948272197518662 ], [ 96.317263289372008, 16.948161711367021 ], [ 96.317108290858286, 16.947887266554162 ], [ 96.316983689129998, 16.947570208780753 ], [ 96.316906562748713, 16.947406706039995 ], [ 96.316798903578615, 16.947295371308698 ], [ 96.316706206727403, 16.947179454802555 ], [ 96.316632891567892, 16.947097246907553 ], [ 96.316564610038697, 16.947010324908327 ], [ 96.316525504034104, 16.946966799064732 ], [ 96.316507817161479, 16.946813636566983 ], [ 96.316454970844887, 16.946688685256703 ], [ 96.316425862310851, 16.946640511495872 ], [ 96.316332758068327, 16.946553263942572 ], [ 96.316345807680236, 16.9463335980602 ], [ 96.316401705079713, 16.946243530473236 ], [ 96.316417276694111, 16.946195944235168 ], [ 96.316448759005951, 16.946076881163201 ], [ 96.316475209618844, 16.94596253128956 ], [ 96.316477447731899, 16.945804851413346 ], [ 96.316528922689059, 16.945676492447024 ], [ 96.316579991584476, 16.94557680344337 ], [ 96.316692057749094, 16.945377555907747 ], [ 96.316818474464114, 16.945216729208738 ], [ 96.31693182846108, 16.944926694840333 ], [ 96.317013971685014, 16.94473661149782 ], [ 96.317046470275685, 16.944545875516791 ], [ 96.317003282217229, 16.944440167911086 ], [ 96.316905552893118, 16.944328964854957 ], [ 96.316633527407859, 16.944253702639799 ], [ 96.316500370103682, 16.944189823759398 ], [ 96.316423312919866, 16.944021542563803 ], [ 96.3163414945993, 16.943838861544002 ], [ 96.316224383778703, 16.943693949626002 ], [ 96.316146241865724, 16.943602119529224 ], [ 96.316003563690202, 16.943509440796866 ], [ 96.315756768435349, 16.943405834957105 ], [ 96.315609125000705, 16.943313090694044 ], [ 96.315318872044912, 16.943122889645231 ], [ 96.315092749682108, 16.94296220531227 ], [ 96.314970607847485, 16.942822006047933 ], [ 96.314908921424674, 16.942620472934241 ], [ 96.31483872963986, 16.942318468453522 ], [ 96.314787650299124, 16.942069283905536 ], [ 96.314667001905775, 16.941823964458933 ], [ 96.314535679078219, 16.941631073964448 ], [ 96.314368723811612, 16.941499842773435 ], [ 96.314236925551569, 16.941340398742209 ], [ 96.314144763513212, 16.941190153429414 ], [ 96.314050351967779, 16.941064057997608 ], [ 96.313919524037971, 16.940880134612033 ], [ 96.313779170371618, 16.940708317820494 ], [ 96.313715855832257, 16.940621460648838 ], [ 96.31369239204642, 16.940525570938807 ], [ 96.313693817293881, 16.940425229376299 ], [ 96.313711387526624, 16.940376713235096 ], [ 96.313576056333673, 16.940256411962743 ], [ 96.313005354025307, 16.940916895477422 ], [ 96.312911721532188, 16.94095449306683 ], [ 96.312809332459096, 16.940953145293065 ], [ 96.312685988447839, 16.940897757424935 ], [ 96.312526685892834, 16.940752287625397 ], [ 96.31236122025399, 16.940603750846517 ], [ 96.312087924376669, 16.940400029150343 ], [ 96.311856963801176, 16.940274523767776 ], [ 96.311634419299295, 16.940211854892098 ], [ 96.311486000413822, 16.940174057879176 ], [ 96.311188567550204, 16.940140271463186 ], [ 96.310702084162244, 16.940089059270754 ], [ 96.310550308463675, 16.940069139064438 ], [ 96.310345744039267, 16.940051509006565 ], [ 96.310131491085571, 16.939835405261839 ], [ 96.310033689121155, 16.939736758537034 ], [ 96.308900956198713, 16.938649529320198 ], [ 96.308059501499429, 16.937811062105812 ], [ 96.3076579451632, 16.937462273126076 ], [ 96.307360008789331, 16.937246273901323 ], [ 96.3069990866815, 16.936877111516036 ], [ 96.306270318191963, 16.936189470429799 ], [ 96.305290971725412, 16.935229699236061 ], [ 96.304791067040696, 16.934728472820705 ], [ 96.303929516550355, 16.933864636178161 ], [ 96.302537311066374, 16.932481237785481 ], [ 96.302447275051378, 16.932341540114979 ], [ 96.301260574048726, 16.931128117181611 ], [ 96.300421394064855, 16.930352381270652 ], [ 96.298802240640683, 16.928953574257221 ], [ 96.298707743916381, 16.928808741844975 ], [ 96.298556444766191, 16.928576849600095 ], [ 96.298294551819239, 16.92831670440869 ], [ 96.297773907917346, 16.927783169031592 ], [ 96.297739072029387, 16.927747822455888 ], [ 96.297236554113198, 16.927237941971953 ], [ 96.29664641256538, 16.926634667199966 ], [ 96.296086613439869, 16.926062378739495 ], [ 96.295485735923023, 16.92544653429475 ], [ 96.294868271811382, 16.924810396214006 ], [ 96.294212491304506, 16.924146031718454 ], [ 96.293578281463368, 16.923501067713197 ], [ 96.293030236116692, 16.922941353919231 ], [ 96.292994251126814, 16.922904147359489 ], [ 96.292376617304342, 16.922265544143571 ], [ 96.29178738959564, 16.921669917008511 ], [ 96.291161029974091, 16.921032698248741 ], [ 96.290668654938074, 16.920538711518429 ], [ 96.28997849882191, 16.919849986629597 ], [ 96.289256313647314, 16.919110177593726 ], [ 96.288548924789438, 16.918387910046008 ], [ 96.288097363373254, 16.91793962234863 ], [ 96.287745190492217, 16.917603848939414 ], [ 96.286049858978004, 16.915815507197735 ], [ 96.284345184610089, 16.912385016238265 ], [ 96.28012058361999, 16.907808241315568 ], [ 96.280447294308686, 16.907522948812737 ], [ 96.280073123188785, 16.907135690709577 ], [ 96.279584338403978, 16.906603502448942 ], [ 96.279088621808867, 16.906070264734876 ], [ 96.278521432071827, 16.905467258046965 ], [ 96.278105000154213, 16.905013448303983 ], [ 96.277500824373632, 16.904359290986559 ], [ 96.276933768208977, 16.903747680799388 ], [ 96.276308119791423, 16.903068383313958 ], [ 96.275764647100544, 16.902474289088861 ], [ 96.275314891200281, 16.901991358658307 ], [ 96.274610969699481, 16.901232640341966 ], [ 96.274206413520034, 16.900782806926241 ], [ 96.273676465906206, 16.900215650771372 ], [ 96.273368839513623, 16.899890593508545 ], [ 96.272473469166741, 16.898924805808075 ], [ 96.271811051608211, 16.898245755144874 ], [ 96.271811083052313, 16.898245721246116 ], [ 96.272151590573799, 16.897874917724703 ], [ 96.27216957557124, 16.897855333417322 ], [ 96.27240628890722, 16.897597558231986 ], [ 96.273203734115725, 16.897048224130579 ], [ 96.273227892087235, 16.897044576029401 ], [ 96.273363033546758, 16.897037092195031 ], [ 96.27338303687813, 16.897035984239654 ], [ 96.273409597105839, 16.8970369775923 ], [ 96.273457731978965, 16.897036859534509 ], [ 96.273563463411207, 16.897042733460765 ], [ 96.273680714150657, 16.897047118978001 ], [ 96.273866806158495, 16.89705103270849 ], [ 96.274091535078, 16.897054899300521 ], [ 96.274236033103847, 16.897057385228816 ], [ 96.274326917209635, 16.897054295392291 ], [ 96.274555131107405, 16.897028661801706 ], [ 96.274651951114038, 16.897027086830921 ], [ 96.274711986939138, 16.897033977982247 ], [ 96.274920868542196, 16.897087894190264 ], [ 96.274932066437017, 16.897089318524056 ], [ 96.274944378884541, 16.897092627137077 ], [ 96.275048416438267, 16.897106916392193 ], [ 96.275084443641902, 16.897108697592362 ], [ 96.275130912573673, 16.897110995348612 ], [ 96.275165952832424, 16.89711023739477 ], [ 96.275200223742118, 16.897108901133443 ], [ 96.275205522439464, 16.897109193864242 ], [ 96.275218609376623, 16.89710991633752 ], [ 96.275225891454582, 16.897110318567545 ], [ 96.275252014844057, 16.897106006421641 ], [ 96.27526027145683, 16.897104001296547 ], [ 96.275344821027531, 16.897083467085629 ], [ 96.275389125825924, 16.897072707711413 ], [ 96.275613703157546, 16.897015124868947 ], [ 96.27585660282142, 16.896952050966267 ], [ 96.275976852016981, 16.89692507577529 ], [ 96.276014966615705, 16.896916525029678 ], [ 96.276020178661639, 16.896915144026341 ], [ 96.276075509195707, 16.896900484449308 ], [ 96.276120733800141, 16.896888183801995 ], [ 96.276144699272621, 16.896878538844156 ], [ 96.276166935670844, 16.896868320870738 ], [ 96.276188299570876, 16.896853994774212 ], [ 96.276311707801952, 16.896763881678879 ], [ 96.276313591500553, 16.89676250603144 ], [ 96.276435114995621, 16.896673767575887 ], [ 96.276573658055639, 16.896566651509431 ], [ 96.276614229268162, 16.896541385164422 ], [ 96.276654676026084, 16.896524719275316 ], [ 96.276921047676893, 16.896442795099361 ], [ 96.277003195791821, 16.896417530197994 ], [ 96.277092941191725, 16.896390050789794 ], [ 96.277114990435464, 16.896382276733288 ], [ 96.277226153145619, 16.896343078134752 ], [ 96.277242351008098, 16.89633450009693 ], [ 96.277292179061092, 16.896308114099746 ], [ 96.277320900753494, 16.896287860220845 ], [ 96.277372163470858, 16.89625171170297 ], [ 96.277490509673655, 16.896155213149633 ], [ 96.277572282584885, 16.896091053254484 ], [ 96.277650857384032, 16.896011811268064 ], [ 96.277693349805574, 16.895956463235901 ], [ 96.277710925127693, 16.89593694152336 ], [ 96.277772256109884, 16.895871371635128 ], [ 96.278054711876379, 16.895594126340779 ], [ 96.27851499586555, 16.895170141203934 ], [ 96.278855262178325, 16.894844967602793 ], [ 96.279341898890451, 16.89440818393663 ], [ 96.279717466442506, 16.894082664143827 ], [ 96.279951351320108, 16.893922202368632 ], [ 96.279985673841807, 16.893898654767483 ], [ 96.279991287267052, 16.893895181053132 ], [ 96.280169879280223, 16.893774340489621 ], [ 96.28024166904801, 16.893736436418692 ], [ 96.280287945719422, 16.893702642876779 ], [ 96.280309668494311, 16.893687514547331 ], [ 96.280311385404858, 16.893686318163745 ], [ 96.280332787345102, 16.89368335952274 ], [ 96.280461085276627, 16.893665621469385 ], [ 96.280466799857564, 16.893664905383478 ], [ 96.280468098948887, 16.893664651713948 ], [ 96.280496657426795, 16.893660703523274 ], [ 96.280571927764768, 16.893647366888235 ], [ 96.280792205672498, 16.893601366090628 ], [ 96.280797840555735, 16.893600189251668 ], [ 96.281078307401287, 16.893513115971846 ], [ 96.28122788013772, 16.89346731316445 ], [ 96.281394557853673, 16.893440255807832 ], [ 96.281492708293356, 16.893425405704477 ], [ 96.281728482707223, 16.893389733590546 ], [ 96.281897693307869, 16.893359125894662 ], [ 96.281945470719663, 16.893359162619191 ], [ 96.282258075333289, 16.893367495814228 ], [ 96.282342427498037, 16.893369760279604 ], [ 96.282478862728041, 16.893373832597934 ], [ 96.282578207541803, 16.89336917771622 ], [ 96.282690095486416, 16.893355131683656 ], [ 96.282813390285668, 16.89332451047094 ], [ 96.282823885260839, 16.893320580388515 ], [ 96.282825878325426, 16.893320077626992 ], [ 96.282903197460385, 16.89329362517946 ], [ 96.282995192525021, 16.893256820080083 ], [ 96.283013032435093, 16.893249683009437 ], [ 96.283032832107082, 16.893236771253971 ], [ 96.283052497330615, 16.893223946216384 ], [ 96.283057015932059, 16.893220999740535 ], [ 96.283064555148684, 16.893216083035462 ], [ 96.283066897777786, 16.893214555362182 ], [ 96.283078428126231, 16.893198525540868 ], [ 96.283084597942192, 16.893190716041801 ], [ 96.283134447231603, 16.893121023447993 ], [ 96.283131602543889, 16.893124595429288 ], [ 96.283218839568875, 16.893003310244378 ], [ 96.283404328189718, 16.892745915000614 ], [ 96.283443654308641, 16.89268610266366 ], [ 96.283494400160691, 16.892565509670526 ], [ 96.283569218941807, 16.892366979506889 ], [ 96.283593438245276, 16.892278889675531 ], [ 96.283627553215609, 16.892149712130305 ], [ 96.283641602395178, 16.892035203050249 ], [ 96.283673544283289, 16.891911232900807 ], [ 96.283699631624756, 16.891746000298749 ], [ 96.283703418191777, 16.89172086720297 ], [ 96.283704534580508, 16.891713456611249 ], [ 96.283704232223286, 16.891687469989499 ], [ 96.28370397794933, 16.891665659104973 ], [ 96.283678528713722, 16.891449669296293 ], [ 96.283666703193973, 16.891408891151091 ], [ 96.283636741373527, 16.891291408287614 ], [ 96.283580339178968, 16.891151436446798 ], [ 96.283445825632825, 16.890839016697537 ], [ 96.283250184406839, 16.890635702688176 ], [ 96.282955491154809, 16.890416735805108 ], [ 96.282808726942264, 16.890266638794561 ], [ 96.282738595547428, 16.889964631155323 ], [ 96.282712786704934, 16.889687107430053 ], [ 96.282758101359718, 16.889295832396765 ], [ 96.282776685020849, 16.88903801329721 ], [ 96.282839112760556, 16.888838124858065 ], [ 96.283051724599247, 16.888549428040303 ], [ 96.283304654477377, 16.888218256075863 ], [ 96.28334675487443, 16.888060905217902 ], [ 96.283186698457968, 16.887917335161635 ], [ 96.28304565834911, 16.887818155325569 ], [ 96.283004870869348, 16.887789472910292 ], [ 96.282857098102127, 16.887675205584948 ], [ 96.282800132248084, 16.887632394107261 ], [ 96.282681901333689, 16.887569653147906 ], [ 96.28264348264608, 16.887564932840512 ], [ 96.282594692636792, 16.887558937828132 ], [ 96.282507731237189, 16.887531021429872 ], [ 96.282391512353101, 16.887466396043322 ], [ 96.282183252956955, 16.887312615123701 ], [ 96.281957100586709, 16.887160507446968 ], [ 96.281688069971096, 16.886952394365665 ], [ 96.281529247952633, 16.886812650815791 ], [ 96.28145069237064, 16.886752348016511 ], [ 96.281304004282219, 16.886660117516737 ], [ 96.281243701319141, 16.886607703719065 ], [ 96.281139247115931, 16.886518860764173 ], [ 96.281012954060955, 16.886395319092358 ], [ 96.280924569503142, 16.886328195323852 ], [ 96.280745715631767, 16.88623549662562 ], [ 96.280140002951072, 16.88589913425314 ], [ 96.279822824354667, 16.885691335909002 ], [ 96.279636979234297, 16.885567002286027 ], [ 96.279561809524807, 16.885512956402636 ], [ 96.279306936342039, 16.885321755477175 ], [ 96.279178828166664, 16.885221128753898 ], [ 96.279068357668066, 16.885132925684964 ], [ 96.278943268739624, 16.885033051527987 ], [ 96.278904785780796, 16.885016769003123 ], [ 96.278865282368372, 16.885010685300191 ], [ 96.278833466805239, 16.885005785701019 ], [ 96.278718910260494, 16.884998528284985 ], [ 96.278665559795215, 16.88498061486035 ], [ 96.278548745108239, 16.884923147729726 ], [ 96.278416026869948, 16.884832494711056 ], [ 96.278045501915201, 16.884606779739272 ], [ 96.277737034721554, 16.884414864667409 ], [ 96.277515522822426, 16.884285754588859 ], [ 96.277334188774901, 16.884158611842693 ], [ 96.277094910123807, 16.883989204012728 ], [ 96.276775077259913, 16.88416279532732 ], [ 96.276748444352435, 16.88417725029413 ], [ 96.27674873315307, 16.884174904241153 ], [ 96.276748808522981, 16.884174292934514 ], [ 96.276750264241215, 16.884162465289418 ], [ 96.276841396082133, 16.883249173768274 ], [ 96.277012297506261, 16.881310604912048 ], [ 96.277131622572057, 16.879964441621027 ], [ 96.277256892656339, 16.87865768383195 ], [ 96.277299211123761, 16.878198747798873 ], [ 96.277306380932146, 16.878010313154959 ], [ 96.277300380216758, 16.877961487030063 ], [ 96.27727904634942, 16.877891670145615 ], [ 96.277251931293449, 16.877809588913841 ], [ 96.277218553848257, 16.877748930222349 ], [ 96.277139431277661, 16.87760737585096 ], [ 96.277106571439305, 16.877562495066982 ], [ 96.276988422936668, 16.877442644679778 ], [ 96.276677433407741, 16.877105534456923 ], [ 96.276078059226421, 16.876466529698579 ], [ 96.276077884471448, 16.876466353977225 ], [ 96.275676981873829, 16.876036217677832 ], [ 96.275254779814063, 16.875573732546194 ], [ 96.274641733404309, 16.874921371940431 ], [ 96.274026911645407, 16.874254648621267 ], [ 96.273433681311857, 16.873605416506958 ], [ 96.273176040378871, 16.873337764468285 ], [ 96.272274322378422, 16.87235605477105 ], [ 96.271817996030066, 16.871857804104444 ], [ 96.271589710981189, 16.871593652765384 ], [ 96.271101585900013, 16.871092373814616 ], [ 96.270770011800096, 16.870722001506991 ], [ 96.270724325315783, 16.87067204077351 ], [ 96.270566298707791, 16.870499231974108 ], [ 96.270541625749772, 16.870472250765307 ], [ 96.270541478917366, 16.870472090765343 ], [ 96.269944762703417, 16.869819551131759 ], [ 96.269862393367404, 16.869731536726064 ], [ 96.268505370031164, 16.868251657441309 ], [ 96.268175912085908, 16.867884755727967 ], [ 96.267346502707468, 16.866961070945294 ], [ 96.26731676046056, 16.866927947570282 ], [ 96.263022460441192, 16.870445486482758 ], [ 96.260037570244478, 16.867116370908558 ], [ 96.259606690552957, 16.866655012704182 ], [ 96.259259787021136, 16.866245561053478 ], [ 96.259076507052754, 16.8660443444777 ], [ 96.259026512834481, 16.866000665625513 ], [ 96.258946829589874, 16.865950854972045 ], [ 96.258901178665539, 16.865915836224723 ], [ 96.25881345196801, 16.865804269573747 ], [ 96.25862826323656, 16.865533695235186 ], [ 96.258532028123625, 16.865386577022331 ], [ 96.258162695204916, 16.865007043596687 ], [ 96.257848580197631, 16.864639686269381 ], [ 96.257272246696601, 16.863980652211335 ], [ 96.257253154463626, 16.863959956853215 ], [ 96.25684537687566, 16.863517928412691 ], [ 96.256484348018404, 16.863077672993736 ], [ 96.256467444734099, 16.863057060167169 ], [ 96.255788753734947, 16.862266532708979 ], [ 96.255549774884116, 16.86200957308014 ], [ 96.255504372992533, 16.86195735307188 ], [ 96.255473850227247, 16.861894508641758 ], [ 96.255455329096819, 16.861856374748179 ], [ 96.255477038224683, 16.86170199618449 ], [ 96.255491016893515, 16.861558816390669 ], [ 96.25548192159593, 16.861415327650988 ], [ 96.255477891577385, 16.861333554072882 ], [ 96.255521537957861, 16.861249551494875 ], [ 96.25555578703144, 16.861197680878991 ], [ 96.255569528437576, 16.861149058676499 ], [ 96.255717193588708, 16.86024505198721 ], [ 96.255720826451181, 16.860224491897441 ], [ 96.255736426803495, 16.860073347635293 ], [ 96.255782949376609, 16.85980730779519 ], [ 96.255797822658266, 16.859739646211395 ], [ 96.255846824586015, 16.859508046698441 ], [ 96.255890817695473, 16.859292718981116 ], [ 96.255890823725693, 16.859292691065754 ], [ 96.255915179150776, 16.859173482843975 ], [ 96.255928428305879, 16.859071880887377 ], [ 96.255953128279586, 16.85888247663577 ], [ 96.255982093199464, 16.858727273842248 ], [ 96.256023054614445, 16.858507790939647 ], [ 96.256042393576479, 16.85833696389831 ], [ 96.256050489944741, 16.858230486648665 ], [ 96.256051977413776, 16.858210928262228 ], [ 96.256052195065465, 16.858208064737372 ], [ 96.256048681162596, 16.858107660769623 ], [ 96.256043702822524, 16.858024959627055 ], [ 96.256043701455454, 16.858024924387887 ], [ 96.256027617410155, 16.85766338350108 ], [ 96.256012302888706, 16.857636107220056 ], [ 96.255998802473087, 16.857612060318736 ], [ 96.255991730131967, 16.857600880115388 ], [ 96.255941992748916, 16.857522249840855 ], [ 96.255843625490058, 16.857391902911754 ], [ 96.255478255972605, 16.856986539214702 ], [ 96.255290557971605, 16.85678256051316 ], [ 96.254866508292722, 16.856321727840491 ], [ 96.254365425894107, 16.855760664872275 ], [ 96.253789157614023, 16.85510536363417 ], [ 96.253755654006056, 16.855067571801055 ], [ 96.252997635127258, 16.854230687114949 ], [ 96.252424959942189, 16.853593393943846 ], [ 96.251935964897427, 16.853042999017372 ], [ 96.251771106551914, 16.852861044500536 ], [ 96.251747847891636, 16.85283537293008 ], [ 96.250754760803389, 16.851711027152987 ], [ 96.249424107304975, 16.850214305729111 ], [ 96.248974904471154, 16.849748157397457 ], [ 96.248710025910995, 16.849509033811877 ], [ 96.248708763807926, 16.849508307049067 ], [ 96.248588546371138, 16.849439054384163 ], [ 96.248428434609721, 16.849398893417703 ], [ 96.247476689194329, 16.849289150818386 ], [ 96.247204438319969, 16.849262052749779 ], [ 96.246998182936579, 16.849219951997732 ], [ 96.247035862719699, 16.849083601900475 ], [ 96.247050298313383, 16.848930890018789 ], [ 96.247047327025641, 16.848827626441192 ], [ 96.247037840724019, 16.848762983857018 ], [ 96.246970770857928, 16.848459580439478 ], [ 96.246788112954093, 16.847810545731694 ], [ 96.246612480197001, 16.847281305023021 ], [ 96.246365860167927, 16.846466822758494 ], [ 96.246288889328213, 16.846212341587592 ], [ 96.24604387022876, 16.845403115062389 ], [ 96.245773308936577, 16.844566375090771 ], [ 96.245685044918204, 16.844293407645523 ], [ 96.245605244651571, 16.844021344928841 ], [ 96.245450189909889, 16.843492712574342 ], [ 96.245147130007339, 16.842532010914823 ], [ 96.244732357457607, 16.841217403975651 ], [ 96.244406302865301, 16.840197613638381 ], [ 96.244191437956388, 16.839525582178904 ], [ 96.243800280478851, 16.838260213376035 ], [ 96.243511687938053, 16.837318680321484 ], [ 96.243451687224209, 16.837126914545351 ], [ 96.243103733446205, 16.836014818855787 ], [ 96.242065169581466, 16.832695931559744 ], [ 96.241817960866101, 16.83190592478962 ], [ 96.241259456160435, 16.830144610321238 ], [ 96.24076160841048, 16.82857345283103 ], [ 96.240761101771668, 16.828571853871868 ], [ 96.240489286153263, 16.827713925947091 ], [ 96.239815857273356, 16.825585682390969 ], [ 96.239715772727095, 16.825269380441458 ], [ 96.239697685618751, 16.825212176652023 ], [ 96.239696104910976, 16.825207177566195 ], [ 96.239206128415702, 16.823657559833503 ], [ 96.238951705800503, 16.822779219656855 ], [ 96.238635723310722, 16.821814419852256 ], [ 96.238400789190663, 16.821077705960814 ], [ 96.238172916405105, 16.820367369592297 ], [ 96.237793709403931, 16.819143661236136 ], [ 96.237421359078624, 16.817960664122861 ], [ 96.237119786238253, 16.817029509772549 ], [ 96.236846331634808, 16.816119649023872 ], [ 96.236626087149517, 16.815421796196869 ], [ 96.236528835488699, 16.815113607408794 ], [ 96.236399640026605, 16.81475042789582 ], [ 96.236337339781585, 16.814598577981251 ], [ 96.236277697367399, 16.814468746822353 ], [ 96.23619091287982, 16.81429458456055 ], [ 96.236123924202843, 16.814192372205586 ], [ 96.23603924345997, 16.814078451721368 ], [ 96.235624832783415, 16.813573008929058 ], [ 96.235120645885857, 16.812963133681034 ], [ 96.23483704058188, 16.812633174293417 ], [ 96.234599540235493, 16.812356853608296 ], [ 96.234114605279999, 16.811788334425657 ], [ 96.233977963529199, 16.811636371332906 ], [ 96.233741669275204, 16.811601301012388 ], [ 96.233600843207299, 16.811595582631004 ], [ 96.233447730987166, 16.811593521534483 ], [ 96.233410356388532, 16.811593018404775 ], [ 96.233294937496595, 16.811614403055831 ], [ 96.233103268450051, 16.811667395055846 ], [ 96.233063853419154, 16.811678597310117 ], [ 96.232929480349341, 16.811716789493772 ], [ 96.232922665759929, 16.811718726075384 ], [ 96.232600759907342, 16.811851977890775 ], [ 96.23255430673953, 16.811871082103682 ], [ 96.232111841268349, 16.812017448835377 ], [ 96.23121978287331, 16.812272275391241 ], [ 96.230270449894434, 16.81254865822325 ], [ 96.229436022604887, 16.812814104839912 ], [ 96.229216125340059, 16.812740799608299 ], [ 96.228697981100225, 16.812473506549328 ], [ 96.227887154908544, 16.812055362433643 ], [ 96.227502467405174, 16.812372268887625 ], [ 96.227286190179271, 16.812548631226687 ], [ 96.22632477528802, 16.813337523228121 ], [ 96.226230338475986, 16.813434214135057 ], [ 96.22618987177313, 16.813487430274307 ], [ 96.226175465429961, 16.813539802498109 ], [ 96.226128333502047, 16.813710008910355 ], [ 96.226049062268089, 16.814117474806427 ], [ 96.225654877132953, 16.81412654644134 ], [ 96.225467127884755, 16.814130866764472 ], [ 96.225463479293509, 16.814130951155956 ], [ 96.225279761944492, 16.814140418231158 ], [ 96.224872907179943, 16.814169558961755 ], [ 96.224676296884454, 16.81418364040924 ], [ 96.224532333863095, 16.814193304172868 ], [ 96.224454047224626, 16.814198559285611 ], [ 96.224138647441663, 16.814221776896517 ], [ 96.22338751860056, 16.814300598368128 ], [ 96.223291398272309, 16.814310684654224 ], [ 96.22321202801372, 16.814309612097414 ], [ 96.22318529857948, 16.814303085548776 ], [ 96.223103259443562, 16.814283053713609 ], [ 96.223100108690147, 16.814303608617696 ], [ 96.223097777423334, 16.81431882112896 ], [ 96.223087929945763, 16.814398732679283 ], [ 96.223080285441753, 16.814497789525369 ], [ 96.223062059889983, 16.814593172323889 ], [ 96.22304588387685, 16.814746743068905 ], [ 96.223052387937443, 16.815117666919434 ], [ 96.223062901327125, 16.815213385728203 ], [ 96.223063520648608, 16.815307058996087 ], [ 96.223046728062471, 16.815369912281859 ], [ 96.222970183978035, 16.815447249878524 ], [ 96.222862031508484, 16.815514602908966 ], [ 96.222801612609715, 16.815574955578683 ], [ 96.222683845337329, 16.815621152099112 ], [ 96.222391990921352, 16.815628676015326 ], [ 96.222007461560111, 16.815594804597822 ], [ 96.221809369561228, 16.815569187086552 ], [ 96.221721727232804, 16.815590941182755 ], [ 96.2216572562306, 16.815656972328963 ], [ 96.221622185992402, 16.815748251081661 ], [ 96.22156613149086, 16.815917618994657 ], [ 96.221507341932394, 16.816087427619792 ], [ 96.221476045641054, 16.816192138301496 ], [ 96.221412853099778, 16.81627252301789 ], [ 96.22136241028339, 16.81632918643664 ], [ 96.221287791323476, 16.816342513676883 ], [ 96.221168908551078, 16.816328958983213 ], [ 96.220864523883392, 16.81627705369802 ], [ 96.220651667968156, 16.816243112087356 ], [ 96.220478706140568, 16.816195374477047 ], [ 96.219899468053825, 16.816499869415562 ], [ 96.220025390416609, 16.816634217564232 ], [ 96.220245776740256, 16.817172425764952 ], [ 96.220434448747824, 16.817844011392935 ], [ 96.22045468090208, 16.817987649009396 ], [ 96.220444731624312, 16.818159551961607 ], [ 96.22040397177777, 16.818402719076481 ], [ 96.22031217003267, 16.818573513605038 ], [ 96.220220054474879, 16.818765808851118 ], [ 96.220097860683083, 16.818979202038474 ], [ 96.219907964320001, 16.819241855782259 ], [ 96.219703394308354, 16.819489974297529 ], [ 96.219240596562983, 16.819832451128214 ], [ 96.218834380688506, 16.820176147901464 ], [ 96.218692566999309, 16.820276785017914 ], [ 96.218376352961542, 16.820501182543708 ], [ 96.217095132172872, 16.821594898367763 ], [ 96.216053725045626, 16.822405127076049 ], [ 96.215714331967362, 16.822711147804846 ], [ 96.215500180536495, 16.822935237336686 ], [ 96.215190404334436, 16.82321772966262 ], [ 96.215003855092419, 16.823387846571304 ], [ 96.214665752045406, 16.824114415916366 ], [ 96.214628156210807, 16.824321944810023 ], [ 96.214536212648653, 16.824829476007608 ], [ 96.214527979373926, 16.825753472253965 ], [ 96.214523948419455, 16.82585221220501 ], [ 96.214520294581732, 16.825941706167164 ], [ 96.214509462855531, 16.826207015497939 ], [ 96.214509460095897, 16.826207075966554 ], [ 96.214486268721188, 16.826648646915725 ], [ 96.214497696360283, 16.826997052098399 ], [ 96.214588864975013, 16.827662614376077 ], [ 96.214586955213662, 16.828180774800167 ], [ 96.214586901353954, 16.828195292808513 ], [ 96.214585476840611, 16.828581717390911 ], [ 96.214629354862254, 16.829485395858431 ], [ 96.214653004247268, 16.829972455189619 ], [ 96.214616144333618, 16.830796294642091 ], [ 96.214595678322581, 16.830996348803769 ], [ 96.2145263200062, 16.831674305164949 ], [ 96.214483947225702, 16.831872419344037 ], [ 96.214464060770084, 16.83196539740516 ], [ 96.214360359099729, 16.832450258089867 ], [ 96.214330540002464, 16.832643686695846 ], [ 96.214320426196025, 16.832709294191538 ], [ 96.214214018420179, 16.832995721496193 ], [ 96.2142052339629, 16.83301936849853 ], [ 96.214198810843698, 16.833036658292816 ], [ 96.214171496903305, 16.833095637678916 ], [ 96.21414221441168, 16.833158865498127 ], [ 96.213724600525936, 16.834060600236526 ], [ 96.213564028423917, 16.834304282516875 ], [ 96.212915989438471, 16.835182217025604 ], [ 96.212285976294112, 16.836186760469054 ], [ 96.211948603713822, 16.83686076310347 ], [ 96.21178588110422, 16.837133698035 ], [ 96.211715640024508, 16.837251514080091 ], [ 96.211592502364795, 16.837458050819087 ], [ 96.21141780230856, 16.837866650990556 ], [ 96.211394741688721, 16.837984475776501 ], [ 96.211328354399868, 16.838370630517108 ], [ 96.211304998242554, 16.838792198731287 ], [ 96.211318821900051, 16.839203361243801 ], [ 96.211401684227795, 16.839644133578549 ], [ 96.211652528387631, 16.840134976442201 ], [ 96.211939004702216, 16.840419113156731 ], [ 96.212122301222678, 16.840600912234553 ], [ 96.212706981461537, 16.841203358872015 ], [ 96.213280277288547, 16.841650841242071 ], [ 96.214160662763703, 16.84224244774877 ], [ 96.215324008896772, 16.842956008525238 ], [ 96.216022162150992, 16.843670869395321 ], [ 96.216290055313152, 16.844269462941735 ], [ 96.21629125497499, 16.844275662574976 ], [ 96.216340294561846, 16.844529098706261 ], [ 96.216333859679906, 16.844716118633443 ], [ 96.216328175328712, 16.844790566877741 ], [ 96.216314421671512, 16.84497068823779 ], [ 96.216309171188144, 16.845039452088955 ], [ 96.216295210555032, 16.845130335071605 ], [ 96.21626894749393, 16.845301314622112 ], [ 96.216262087919887, 16.845345968911349 ], [ 96.216238749199462, 16.845452636808062 ], [ 96.216187999824868, 16.845532543983794 ], [ 96.215896272013993, 16.845831752681512 ], [ 96.215867318727817, 16.84586144838342 ], [ 96.215833963076179, 16.84589565930818 ], [ 96.215777851112946, 16.845953209287952 ], [ 96.215552934687338, 16.846173945647735 ], [ 96.215213698495674, 16.846506876518408 ], [ 96.214861481859018, 16.846852578693781 ], [ 96.214277228252072, 16.847426022404811 ], [ 96.213277863534145, 16.848064750257297 ], [ 96.212368745254835, 16.848640185146952 ], [ 96.211059788733593, 16.849148464682354 ], [ 96.211006435172052, 16.849169181726431 ], [ 96.209940397091273, 16.849584550257664 ], [ 96.210024386411789, 16.849808440596018 ], [ 96.210152119336712, 16.850148934431843 ], [ 96.210319438305419, 16.85057737312464 ], [ 96.210535936660662, 16.851153652358995 ], [ 96.210611426856232, 16.851431956251002 ], [ 96.210664247222766, 16.851732161930784 ], [ 96.210755063441567, 16.852441711896034 ], [ 96.210977631611854, 16.854180719873984 ], [ 96.211125242823485, 16.855462751411778 ], [ 96.21123053555668, 16.856002755303102 ], [ 96.211267907612282, 16.856175264353155 ], [ 96.21130075160454, 16.856298051932978 ], [ 96.211347031980281, 16.856443143896151 ], [ 96.211415263637335, 16.856615440522557 ], [ 96.211441788563079, 16.856673404589433 ], [ 96.211525479651584, 16.856793453861354 ], [ 96.211585354645166, 16.856860629484906 ], [ 96.211809128475892, 16.857073324431504 ], [ 96.212007653908842, 16.857262018991914 ], [ 96.212566419042403, 16.857733880528251 ], [ 96.212864771782904, 16.857965556106965 ], [ 96.212986532957032, 16.858058029762198 ], [ 96.213149969055877, 16.858182152724179 ], [ 96.21334995645897, 16.858318951256397 ], [ 96.213446698850376, 16.85839809482415 ], [ 96.213535648308763, 16.858470812733671 ], [ 96.213614252615159, 16.858568670615874 ], [ 96.21369002092608, 16.858691228701357 ], [ 96.213790131343373, 16.858904677724816 ], [ 96.213867304300251, 16.859100208683145 ], [ 96.214047921367737, 16.859802438127712 ], [ 96.214084453398684, 16.859944472293169 ], [ 96.214154523998332, 16.860123473486379 ], [ 96.214294613884348, 16.860342432644533 ], [ 96.214506187679049, 16.860622766075274 ], [ 96.214532670016908, 16.860652372858002 ], [ 96.215069538455765, 16.861326276460026 ], [ 96.215352847105692, 16.86169724105596 ], [ 96.216254304398333, 16.862840806240943 ], [ 96.216524302110912, 16.863187662952182 ], [ 96.216812278113025, 16.863554409046252 ], [ 96.217278175913464, 16.864147740884597 ], [ 96.217571072461027, 16.864520728310822 ], [ 96.217779862330019, 16.864785943107904 ], [ 96.218014159901315, 16.865083646270289 ], [ 96.218108733628924, 16.865200196751474 ], [ 96.21838441290268, 16.86553993869353 ], [ 96.218449639871253, 16.865606463145301 ], [ 96.218676589264902, 16.865804026102751 ], [ 96.218957244617826, 16.866052158446319 ], [ 96.219219007772679, 16.866275383784689 ], [ 96.219264759852592, 16.866314378115181 ], [ 96.219557113304745, 16.866571786023496 ], [ 96.219854515012443, 16.866833055024287 ], [ 96.220056266434241, 16.867008696856757 ], [ 96.220318401319773, 16.867238426507036 ], [ 96.220635785886699, 16.867518926703308 ], [ 96.220937813184491, 16.867781431248318 ], [ 96.221047697948876, 16.867877610017342 ], [ 96.221703976178802, 16.868482486076612 ], [ 96.222577041717699, 16.86925845144652 ], [ 96.223406461501469, 16.86996500797218 ], [ 96.224216409265722, 16.870679899927584 ], [ 96.22508551462785, 16.871431615459546 ], [ 96.225355085971074, 16.871645574736881 ], [ 96.22541475306538, 16.871699179554312 ], [ 96.225673679236664, 16.871990619418682 ], [ 96.22604198673632, 16.872486962459014 ], [ 96.226729780069093, 16.873424473704379 ], [ 96.226991208641635, 16.8737808181763 ], [ 96.228501051254327, 16.875865284546727 ], [ 96.229775491886173, 16.877599912908508 ], [ 96.230514375484773, 16.878622417917949 ], [ 96.231235268198333, 16.87960286347759 ], [ 96.232217540667392, 16.880954212806408 ], [ 96.233194536744335, 16.882211578007954 ], [ 96.23335567282254, 16.882431794012852 ], [ 96.233574749125466, 16.882731192185929 ], [ 96.234100013469302, 16.883440745106604 ], [ 96.234701166112018, 16.884255787353929 ], [ 96.235331693135336, 16.885114654491737 ], [ 96.235816284559988, 16.88577128725996 ], [ 96.23594302393937, 16.885943194797704 ], [ 96.236478534425629, 16.886667328800453 ], [ 96.236600876828973, 16.886827890862623 ], [ 96.237187224132654, 16.8876305405356 ], [ 96.23780304710445, 16.888470243159961 ], [ 96.238212795134913, 16.889030425990764 ], [ 96.239019171368398, 16.890127857122557 ], [ 96.239704222337792, 16.89106410876709 ], [ 96.239918930908232, 16.891346452113172 ], [ 96.240143336558845, 16.891664050755146 ], [ 96.24038685095249, 16.891991927571521 ], [ 96.240894293795762, 16.892675135201511 ], [ 96.241210637500075, 16.893101145654175 ], [ 96.242169536782725, 16.894409016113915 ], [ 96.242838529588724, 16.895323915971538 ], [ 96.243662219806467, 16.896461578240149 ], [ 96.244094527128937, 16.89704516569704 ], [ 96.244532688300978, 16.89763599922868 ], [ 96.244783816357341, 16.89798059207585 ], [ 96.245012925070355, 16.898303382931267 ], [ 96.245271083141247, 16.898676743171187 ], [ 96.245469031584619, 16.898991946303976 ], [ 96.245678831262495, 16.899347307654015 ], [ 96.245967790188089, 16.899855845702447 ], [ 96.2462878869988, 16.900425016250828 ], [ 96.246558608919386, 16.900877047611456 ], [ 96.246712037887733, 16.901138566232369 ], [ 96.247039279594418, 16.901711655990887 ], [ 96.247322758792464, 16.902222031085355 ], [ 96.247645040525796, 16.902795052664395 ], [ 96.247907169199223, 16.903251855829939 ], [ 96.248158065107603, 16.903693174991506 ], [ 96.248614762523047, 16.904501810091897 ], [ 96.249024364623637, 16.905230819497387 ], [ 96.249245509450034, 16.905609855167445 ], [ 96.249325862085897, 16.905749718619496 ], [ 96.249603501717004, 16.906247527309507 ], [ 96.250066386001933, 16.907061382448255 ], [ 96.250697592163149, 16.908147625173974 ], [ 96.251423684738114, 16.909416636077307 ], [ 96.251638856115676, 16.909814029374751 ], [ 96.252024173197327, 16.910492074436828 ], [ 96.252331938037457, 16.911041003737576 ], [ 96.252405689686171, 16.911158599639091 ], [ 96.252512858796152, 16.911299583191525 ], [ 96.252700178436299, 16.911527663454621 ], [ 96.253086183286015, 16.911954399110705 ], [ 96.254007197409663, 16.912996637588801 ], [ 96.25433667920629, 16.913379652130793 ], [ 96.254391080873347, 16.913447740121281 ], [ 96.256007706444436, 16.915327247102354 ], [ 96.258188776629709, 16.917807790819264 ], [ 96.259230329882698, 16.91902542822935 ], [ 96.259704718037838, 16.919564445798642 ], [ 96.260261105812233, 16.920209955308895 ], [ 96.261003911915708, 16.921060044360889 ], [ 96.261805168222836, 16.921988332948516 ], [ 96.262553716242039, 16.922854265841689 ], [ 96.263379991609739, 16.923804389930915 ], [ 96.264157983521628, 16.924695085060314 ], [ 96.26486709254128, 16.925508871759082 ], [ 96.265521916370218, 16.926266015535582 ], [ 96.266210478960559, 16.927059451646866 ], [ 96.266844838929671, 16.927790513400829 ], [ 96.267512956665271, 16.928556433553371 ], [ 96.268229352893684, 16.929383211319241 ], [ 96.26884480397446, 16.930083909129177 ], [ 96.269458810318554, 16.930781718071099 ], [ 96.27020010504458, 16.931638931538355 ], [ 96.271011956253147, 16.932561601909438 ], [ 96.27151298626967, 16.93314176851128 ], [ 96.2721532188053, 16.933881499302245 ], [ 96.272836022413529, 16.93466480761882 ], [ 96.273549526754849, 16.935488666397109 ], [ 96.274173662504026, 16.936209539557787 ], [ 96.274843348459356, 16.936974030680162 ], [ 96.275567417744867, 16.937789423459083 ], [ 96.275845714213446, 16.938116174478111 ], [ 96.275847267992333, 16.938117998713853 ], [ 96.276179979992961, 16.938508190805464 ], [ 96.276633163414573, 16.939034186779981 ], [ 96.277151987679531, 16.939622227715102 ], [ 96.277641281317045, 16.9401924303973 ], [ 96.277968958890384, 16.940578785562796 ], [ 96.27833309775248, 16.940994090649919 ], [ 96.278752267700042, 16.941469211143144 ], [ 96.279372512113071, 16.942187094369167 ], [ 96.280051472691838, 16.942965555362033 ], [ 96.280726731546295, 16.94374277064415 ], [ 96.281350747452166, 16.944458369899714 ], [ 96.281997695376418, 16.945219673460748 ], [ 96.282145169188937, 16.945409212456703 ], [ 96.282374765609291, 16.945671528410301 ], [ 96.283252733185705, 16.946683217592028 ], [ 96.283999109254054, 16.947523498837736 ], [ 96.284670052802227, 16.948257636896599 ], [ 96.285316941555735, 16.949024905522634 ], [ 96.285898237939335, 16.949692137649375 ], [ 96.28648679682189, 16.950372606390307 ], [ 96.287086496263271, 16.951055612618113 ], [ 96.287730005035016, 16.951800131245758 ], [ 96.288301527418554, 16.952457670096049 ], [ 96.288877982359551, 16.953117663015156 ], [ 96.289498334872903, 16.953833196152566 ], [ 96.290050353304778, 16.954466577837341 ], [ 96.290498641295088, 16.954975521385581 ], [ 96.291083578100285, 16.955651154362322 ], [ 96.291557353328116, 16.956201055959269 ], [ 96.291694079536015, 16.95635623120484 ], [ 96.292009081958554, 16.956705866856435 ], [ 96.292444733027892, 16.957200780416311 ], [ 96.292829297276583, 16.957652721431415 ], [ 96.293301739339583, 16.958209771434735 ], [ 96.293403625640451, 16.958326008958053 ], [ 96.293653515394965, 16.958611096391856 ], [ 96.293885488637059, 16.958882993386851 ], [ 96.294222577389704, 16.959269785801325 ], [ 96.294667130407788, 16.959781063012151 ], [ 96.294842712697829, 16.960003226134159 ], [ 96.294885111406629, 16.960076668270617 ], [ 96.29491254657998, 16.960154691213621 ], [ 96.294941797142144, 16.960279332749828 ], [ 96.294957702693196, 16.960382292250127 ], [ 96.294961336948276, 16.960436886012783 ], [ 96.294976435999814, 16.960486537366886 ], [ 96.294957495225006, 16.960527502579748 ], [ 96.294946902149889, 16.960616319990812 ], [ 96.294920915437231, 16.96069721878078 ], [ 96.294874898316721, 16.960789799192547 ], [ 96.294839135394781, 16.960859814867728 ], [ 96.294552212784041, 16.961264602001332 ], [ 96.294371348872488, 16.961516896609719 ], [ 96.294226738080113, 16.961732422094808 ], [ 96.294146882711289, 16.961847253083832 ], [ 96.294060385883284, 16.962079082216388 ], [ 96.294028406553792, 16.962231585236513 ], [ 96.29400747787804, 16.962392598650698 ], [ 96.29401336806049, 16.962501399369312 ], [ 96.294064694384815, 16.96273147292737 ], [ 96.294141016588455, 16.962949929958885 ], [ 96.29419269468562, 16.963056826727883 ], [ 96.294206124141709, 16.963084605978203 ], [ 96.294291451670532, 16.963194459921812 ], [ 96.294534686720382, 16.963460533162607 ], [ 96.295242027148447, 16.964173625187907 ], [ 96.295616236131821, 16.964538362837391 ], [ 96.296072143451724, 16.964982729405381 ], [ 96.296585957135406, 16.965516711770206 ], [ 96.296726584938867, 16.965662858531463 ], [ 96.297517217421529, 16.966455903047535 ], [ 96.298396011725231, 16.967334941794149 ], [ 96.29875704917454, 16.967698151360008 ], [ 96.298827759909159, 16.967788694874852 ], [ 96.298877470870281, 16.967871792065306 ], [ 96.298909771147521, 16.967957047303234 ], [ 96.298929949735523, 16.968021831683316 ], [ 96.298930655608558, 16.968046942323639 ], [ 96.298931594966035, 16.968080396360882 ], [ 96.298926999423898, 16.968141267999048 ], [ 96.298902389915099, 16.968212626976946 ], [ 96.298864247396537, 16.968275442843975 ], [ 96.298613257529752, 16.968550495113039 ], [ 96.298468737699579, 16.96870907849387 ], [ 96.298466948141993, 16.968711042541006 ], [ 96.298457931653189, 16.968723433947577 ], [ 96.298423891350652, 16.968770209587817 ], [ 96.298372993434441, 16.968856751886978 ], [ 96.298338317198684, 16.968937535036314 ], [ 96.298315934486752, 16.969026844892955 ], [ 96.298308052570704, 16.969143826123215 ], [ 96.298308310886185, 16.969145710742684 ], [ 96.298322667387907, 16.969250352995932 ], [ 96.29835579858873, 16.96936429333585 ], [ 96.298389152040286, 16.969462705691587 ], [ 96.298610430995041, 16.969962655243243 ], [ 96.298873667700988, 16.970567105170197 ], [ 96.29911529860648, 16.971119893822713 ], [ 96.299438772729857, 16.971852979024931 ], [ 96.299789831442595, 16.972644763741485 ], [ 96.299848006451157, 16.972775972906962 ], [ 96.299959941952693, 16.97302843363974 ], [ 96.300071068038861, 16.973279369993612 ], [ 96.300101905813051, 16.973366566493258 ], [ 96.300124048520047, 16.973429176878486 ], [ 96.300146261065436, 16.973542734051041 ], [ 96.300159044295469, 16.973690575149419 ], [ 96.300169906908252, 16.973868498091313 ], [ 96.30019044932294, 16.974515371132455 ], [ 96.300211899382106, 16.975307060513288 ], [ 96.300240994394528, 16.976189174816334 ], [ 96.300258208317274, 16.9768603761751 ], [ 96.300284598305069, 16.977619155345803 ], [ 96.300286188499641, 16.97769711469158 ], [ 96.300306646998067, 16.97870007282355 ], [ 96.300329618692658, 16.979315914250808 ], [ 96.300363661905038, 16.980185285956981 ], [ 96.300391983731046, 16.981017208953293 ], [ 96.300412043669056, 16.981801711649247 ], [ 96.300443348077437, 16.982668082951488 ], [ 96.300485507724744, 16.983886334876033 ], [ 96.300504010297971, 16.984396502643033 ], [ 96.300525390811103, 16.984986036690401 ], [ 96.300565601684539, 16.986062802691677 ], [ 96.300593068277976, 16.98691956620026 ], [ 96.300632594230223, 16.988044113381235 ], [ 96.300663545137041, 16.98921251427031 ], [ 96.300693423763775, 16.990178270899456 ], [ 96.300731962841894, 16.991371623392538 ], [ 96.300777296178325, 16.99264535313494 ], [ 96.300807604062328, 16.993901921237015 ], [ 96.300809952226814, 16.994293935514669 ], [ 96.300833110350752, 16.994988082146094 ], [ 96.30084926770482, 16.995767274691925 ], [ 96.300859936633529, 16.99649621537824 ], [ 96.300874785556076, 16.997453408639558 ], [ 96.300894155097623, 16.998441725447659 ], [ 96.300909421030667, 16.99928303422945 ], [ 96.300924521111426, 16.999875831610712 ], [ 96.300941073708628, 17.000548319498655 ], [ 96.300941789368167, 17.000577379584765 ], [ 96.300938230067814, 17.000825840628416 ], [ 96.300920140242241, 17.000961802625113 ], [ 96.300880688497315, 17.001115402758071 ], [ 96.300855543897512, 17.001223791097232 ], [ 96.300745741302777, 17.001521022837039 ], [ 96.30054260981936, 17.002141326867548 ], [ 96.300473052658802, 17.002353732234166 ], [ 96.300197184269038, 17.003148166143419 ], [ 96.299914608776817, 17.003977158411363 ], [ 96.299594144128221, 17.004937069504145 ], [ 96.299334834345458, 17.005701852118538 ], [ 96.299031520948802, 17.00667752090591 ], [ 96.298794560945268, 17.007528620664274 ], [ 96.298509296855514, 17.008543953887926 ], [ 96.298277605765321, 17.009373617295957 ], [ 96.298015762308808, 17.010313990789019 ], [ 96.297780271444026, 17.011148380859115 ], [ 96.297593757311247, 17.011857972986292 ], [ 96.297559334300956, 17.012006859230929 ], [ 96.297530433409548, 17.012203608972897 ], [ 96.297493798367725, 17.012506587785222 ], [ 96.29740562607472, 17.013285587303908 ], [ 96.297303784485351, 17.014151620579128 ], [ 96.29719757701443, 17.014975779585015 ], [ 96.297115337380191, 17.015600734561634 ], [ 96.297048322390864, 17.016203191094469 ], [ 96.29697516710678, 17.016800787519326 ], [ 96.296969161594575, 17.016959608849298 ], [ 96.296973052967658, 17.017120951380974 ], [ 96.297004070736264, 17.017295797540253 ], [ 96.29706539004809, 17.017522419267145 ], [ 96.297125934357268, 17.017714642801959 ], [ 96.297231660850812, 17.018050318865516 ], [ 96.297395312798272, 17.018587741276594 ], [ 96.297497611014336, 17.018900930240523 ], [ 96.29769181666525, 17.019386189305653 ], [ 96.297780794712963, 17.019589283996645 ], [ 96.298123188394655, 17.020391927066907 ], [ 96.298390108280273, 17.021002406372354 ], [ 96.29877566131205, 17.021913148283932 ], [ 96.29915814140783, 17.022794589922356 ], [ 96.299707192566615, 17.022597518188118 ], [ 96.299814014237484, 17.022509330919306 ], [ 96.299799647978915, 17.022366555275838 ], [ 96.299623820482196, 17.020619100330705 ], [ 96.299430541339348, 17.018943884141226 ], [ 96.299306774861535, 17.018482261669803 ], [ 96.299227637141797, 17.018186505773709 ], [ 96.299098826529715, 17.017816812148101 ], [ 96.298910285051079, 17.017455882699295 ], [ 96.298741265697757, 17.017119108037985 ], [ 96.298619646561875, 17.016940669552636 ], [ 96.298557142435953, 17.016796469599129 ], [ 96.298510498126177, 17.016585573949843 ], [ 96.298512555453115, 17.01644223082096 ], [ 96.298629384178113, 17.016262181754939 ], [ 96.298849544296445, 17.016150409832594 ], [ 96.299088609501126, 17.01610579606913 ], [ 96.299435765516819, 17.016143859154528 ], [ 96.300123604832706, 17.016325037556559 ], [ 96.300823329697366, 17.016716646946783 ], [ 96.301241145727005, 17.017023270253532 ], [ 96.301830179253116, 17.017513766491223 ], [ 96.302060033005091, 17.017765324608025 ], [ 96.302399282914976, 17.018008776276965 ], [ 96.302652212681082, 17.018149596300571 ], [ 96.303429955132827, 17.018470548187793 ], [ 96.303999541170299, 17.018585629610907 ], [ 96.304557054689027, 17.018676653850324 ], [ 96.304950103819152, 17.018796731937666 ], [ 96.305480104834999, 17.019248205180492 ], [ 96.305651709828823, 17.019752276101602 ], [ 96.305881065828345, 17.020386145505757 ], [ 96.306259619680475, 17.021007655686976 ], [ 96.306552267872931, 17.021384295965497 ], [ 96.307009630012146, 17.021705770804008 ], [ 96.30760416450461, 17.021814005137241 ], [ 96.308408928708772, 17.021810325084008 ], [ 96.308965121351903, 17.021473599261263 ], [ 96.309474156036131, 17.021308291329415 ], [ 96.310189114086398, 17.021332089465879 ], [ 96.310947542233833, 17.021442482547364 ], [ 96.311958439882076, 17.021613560629344 ], [ 96.312747283887575, 17.021681338163312 ], [ 96.313074044507147, 17.0217573427927 ], [ 96.313381813713107, 17.022119838761316 ], [ 96.313750204703908, 17.022411450007809 ], [ 96.314463533026498, 17.022549908978629 ], [ 96.3153256530167, 17.022704667819074 ], [ 96.31588794545894, 17.022984499369194 ], [ 96.316496983514156, 17.023121574533423 ], [ 96.317017033893222, 17.023228799192992 ], [ 96.317689145067092, 17.023122972150752 ], [ 96.318242264548275, 17.023001235843633 ], [ 96.318632306810812, 17.022819997399356 ], [ 96.318814368300522, 17.02259300446752 ], [ 96.31890866788585, 17.022250155735531 ], [ 96.319251204911765, 17.021754763941502 ], [ 96.319452449950063, 17.021575813075305 ] ] ] ] } }
]
}
